{"type": "FeatureCollection", "features": [ {"type": "Feature", "properties": {"norad_id": 65304, "name": "DRAGON CRS-33", "group": "stations", "lat": 2.361826025143846, "lon": -39.206293908813, "alt_km": 417.46156568796596, "timestamp": "2025-12-12T16:50:31.930647+00:00", "meta": {"OBJECT_NAME": "DRAGON CRS-33", "OBJECT_ID": "2025-186A", "EPOCH": "2025-12-12T03:41:57.165504", "MEAN_MOTION": 15.49529746, "ECCENTRICITY": 0.00032837, "INCLINATION": 51.6307, "RA_OF_ASC_NODE": 145.3792, "ARG_OF_PERICENTER": 237.6977, "MEAN_ANOMALY": 122.3694, "EPHEMERIS_TYPE": 0, "CLASSIFICATION_TYPE": "U", "NORAD_CAT_ID": 65304, "ELEMENT_SET_NO": 999, "REV_AT_EPOCH": 11, "BSTAR": 0.00026408062, "MEAN_MOTION_DOT": 0.00014398, "MEAN_MOTION_DDOT": 0}, "tle": {"line1": "1 65304U 25186A   25346.15413386  .00014398  00000+0  26408-3 0  9998", "line2": "2 65304  51.6307 145.3792 0003283 237.6977 122.3694 15.49529746   111"}}, "geometry": {"type": "Point", "coordinates": [-39.206293908813, 2.361826025143846]}}, {"type": "Feature", "properties": {"norad_id": 65586, "name": "PROGRESS-MS 32", "group": "stations", "lat": 2.361825569384919, "lon": -39.20629354743072, "alt_km": 417.4615657293789, "timestamp": "2025-12-12T16:50:31.930656+00:00", "meta": {"OBJECT_NAME": "PROGRESS-MS 32", "OBJECT_ID": "2025-204A", "EPOCH": "2025-12-12T03:41:57.165504", "MEAN_MOTION": 15.49529746, "ECCENTRICITY": 0.00032837, "INCLINATION": 51.6307, "RA_OF_ASC_NODE": 145.3792, "ARG_OF_PERICENTER": 237.6977, "MEAN_ANOMALY": 122.3694, "EPHEMERIS_TYPE": 0, "CLASSIFICATION_TYPE": "U", "NORAD_CAT_ID": 65586, "ELEMENT_SET_NO": 999, "REV_AT_EPOCH": 27, "BSTAR": 0.00026408062, "MEAN_MOTION_DOT": 0.00014398, "MEAN_MOTION_DDOT": 0}, "tle": {"line1": "1 65586U 25204A   25346.15413386  .00014398  00000+0  26408-3 0  9991", "line2": "2 65586  51.6307 145.3792 0003283 237.6977 122.3694 15.49529746   270"}}, "geometry": {"type": "Point", "coordinates": [-39.20629354743072, 2.361825569384919]}}, {"type": "Feature", "properties": {"norad_id": 65616, "name": "CYGNUS NG-23", "group": "stations", "lat": 2.3618250629864224, "lon": -39.20629314589512, "alt_km": 417.46156577539386, "timestamp": "2025-12-12T16:50:31.930666+00:00", "meta": {"OBJECT_NAME": "CYGNUS NG-23", "OBJECT_ID": "2025-208A", "EPOCH": "2025-12-12T03:41:57.165504", "MEAN_MOTION": 15.49529746, "ECCENTRICITY": 0.00032837, "INCLINATION": 51.6307, "RA_OF_ASC_NODE": 145.3792, "ARG_OF_PERICENTER": 237.6977, "MEAN_ANOMALY": 122.3694, "EPHEMERIS_TYPE": 0, "CLASSIFICATION_TYPE": "U", "NORAD_CAT_ID": 65616, "ELEMENT_SET_NO": 999, "REV_AT_EPOCH": 22, "BSTAR": 0.00026408062, "MEAN_MOTION_DOT": 0.00014398, "MEAN_MOTION_DDOT": 0}, "tle": {"line1": "1 65616U 25208A   25346.15413386  .00014398  00000+0  26408-3 0  9999", "line2": "2 65616  51.6307 145.3792 0003283 237.6977 122.3694 15.49529746   229"}}, "geometry": {"type": "Point", "coordinates": [-39.20629314589512, 2.3618250629864224]}}, {"type": "Feature", "properties": {"norad_id": 65729, "name": "DRAGONFLY", "group": "stations", "lat": 21.67090026833525, "lon": -62.39770079778259, "alt_km": 353.6612822005536, "timestamp": "2025-12-12T16:50:31.930676+00:00", "meta": {"OBJECT_NAME": "DRAGONFLY", "OBJECT_ID": "1998-067XH", "EPOCH": "2025-12-11T23:24:46.286208", "MEAN_MOTION": 15.71570854, "ECCENTRICITY": 0.0006728, "INCLINATION": 51.6238, "RA_OF_ASC_NODE": 139.6768, "ARG_OF_PERICENTER": 272.7665, "MEAN_ANOMALY": 87.2563, "EPHEMERIS_TYPE": 0, "CLASSIFICATION_TYPE": "U", "NORAD_CAT_ID": 65729, "ELEMENT_SET_NO": 999, "REV_AT_EPOCH": 1304, "BSTAR": 0.0014274, "MEAN_MOTION_DOT": 0.00191153, "MEAN_MOTION_DDOT": 0}, "tle": {"line1": "1 65729U 98067XH  25345.97553572  .00191153  00000+0  14274-2 0  9990", "line2": "2 65729  51.6238 139.6768 0006728 272.7665  87.2563 15.71570854 13046"}}, "geometry": {"type": "Point", "coordinates": [-62.39770079778259, 21.67090026833525]}}, {"type": "Feature", "properties": {"norad_id": 65731, "name": "1998-067XK", "group": "stations", "lat": 2.436344662030001, "lon": -44.50795368761172, "alt_km": 370.3424056735694, "timestamp": "2025-12-12T16:50:31.930686+00:00", "meta": {"OBJECT_NAME": "1998-067XK", "OBJECT_ID": "1998-067XK", "EPOCH": "2025-12-12T03:50:05.091360", "MEAN_MOTION": 15.65576391, "ECCENTRICITY": 0.00050531, "INCLINATION": 51.6278, "RA_OF_ASC_NODE": 140.1747, "ARG_OF_PERICENTER": 242.2687, "MEAN_ANOMALY": 117.7796, "EPHEMERIS_TYPE": 0, "CLASSIFICATION_TYPE": "U", "NORAD_CAT_ID": 65731, "ELEMENT_SET_NO": 999, "REV_AT_EPOCH": 1305, "BSTAR": 0.001139871, "MEAN_MOTION_DOT": 0.00118061, "MEAN_MOTION_DDOT": 0}, "tle": {"line1": "1 65731U 98067XK  25346.15978115  .00118061  00000+0  11399-2 0  9990", "line2": "2 65731  51.6278 140.1747 0005053 242.2687 117.7796 15.65576391 13056"}}, "geometry": {"type": "Point", "coordinates": [-44.50795368761172, 2.436344662030001]}}, {"type": "Feature", "properties": {"norad_id": 65732, "name": "RSP-03", "group": "stations", "lat": 23.76719510935951, "lon": -63.702260891505546, "alt_km": 360.4693329380643, "timestamp": "2025-12-12T16:50:31.930697+00:00", "meta": {"OBJECT_NAME": "RSP-03", "OBJECT_ID": "1998-067XL", "EPOCH": "2025-12-11T11:09:18.310464", "MEAN_MOTION": 15.68184189, "ECCENTRICITY": 0.00058259, "INCLINATION": 51.626, "RA_OF_ASC_NODE": 143.0256, "ARG_OF_PERICENTER": 242.1359, "MEAN_ANOMALY": 117.9048, "EPHEMERIS_TYPE": 0, "CLASSIFICATION_TYPE": "U", "NORAD_CAT_ID": 65732, "ELEMENT_SET_NO": 999, "REV_AT_EPOCH": 1296, "BSTAR": 0.0016947067, "MEAN_MOTION_DOT": 0.00197326, "MEAN_MOTION_DDOT": 0}, "tle": {"line1": "1 65732U 98067XL  25345.46479526  .00197326  00000+0  16947-2 0  9991", "line2": "2 65732  51.6260 143.0256 0005825 242.1359 117.9048 15.68184189 12961"}}, "geometry": {"type": "Point", "coordinates": [-63.702260891505546, 23.76719510935951]}}, {"type": "Feature", "properties": {"norad_id": 65733, "name": "GHS-01", "group": "stations", "lat": 45.406098675502214, "lon": -171.11758703154746, "alt_km": 343.1826306105786, "timestamp": "2025-12-12T16:50:31.930707+00:00", "meta": {"OBJECT_NAME": "GHS-01", "OBJECT_ID": "1998-067XM", "EPOCH": "2025-12-11T17:42:59.976288", "MEAN_MOTION": 15.74255219, "ECCENTRICITY": 0.0007045, "INCLINATION": 51.6266, "RA_OF_ASC_NODE": 140.35, "ARG_OF_PERICENTER": 274.7166, "MEAN_ANOMALY": 85.3028, "EPHEMERIS_TYPE": 0, "CLASSIFICATION_TYPE": "U", "NORAD_CAT_ID": 65733, "ELEMENT_SET_NO": 999, "REV_AT_EPOCH": 1302, "BSTAR": 0.0015474625, "MEAN_MOTION_DOT": 0.002337, "MEAN_MOTION_DDOT": 0}, "tle": {"line1": "1 65733U 98067XM  25345.73819417  .00233700  00000+0  15475-2 0  9991", "line2": "2 65733  51.6266 140.3500 0007045 274.7166  85.3028 15.74255219 13027"}}, "geometry": {"type": "Point", "coordinates": [-171.11758703154746, 45.406098675502214]}}, {"type": "Feature", "properties": {"norad_id": 65941, "name": "YOTSUBA-KULOVER", "group": "stations", "lat": -43.42503259427439, "lon": 91.5810521686588, "alt_km": 393.08128304425645, "timestamp": "2025-12-12T16:50:31.930717+00:00", "meta": {"OBJECT_NAME": "YOTSUBA-KULOVER", "OBJECT_ID": "1998-067XN", "EPOCH": "2025-12-11T19:34:16.498272", "MEAN_MOTION": 15.59284629, "ECCENTRICITY": 0.00014791, "INCLINATION": 51.6283, "RA_OF_ASC_NODE": 144.6232, "ARG_OF_PERICENTER": 240.6156, "MEAN_ANOMALY": 119.469, "EPHEMERIS_TYPE": 0, "CLASSIFICATION_TYPE": "U", "NORAD_CAT_ID": 65941, "ELEMENT_SET_NO": 999, "REV_AT_EPOCH": 971, "BSTAR": 0.00099850147, "MEAN_MOTION_DOT": 0.00080384, "MEAN_MOTION_DDOT": 0}, "tle": {"line1": "1 65941U 98067XN  25345.81546873  .00080384  00000+0  99850-3 0  9992", "line2": "2 65941  51.6283 144.6232 0001479 240.6156 119.4690 15.59284629  9717"}}, "geometry": {"type": "Point", "coordinates": [91.5810521686588, -43.42503259427439]}}, {"type": "Feature", "properties": {"norad_id": 65942, "name": "BOTAN", "group": "stations", "lat": -51.499272299099864, "lon": 44.438663194123166, "alt_km": 382.18051077111613, "timestamp": "2025-12-12T16:50:31.930727+00:00", "meta": {"OBJECT_NAME": "BOTAN", "OBJECT_ID": "1998-067XP", "EPOCH": "2025-12-12T03:25:38.383968", "MEAN_MOTION": 15.62701818, "ECCENTRICITY": 0.00032115, "INCLINATION": 51.6278, "RA_OF_ASC_NODE": 142.3097, "ARG_OF_PERICENTER": 233.7514, "MEAN_ANOMALY": 126.3183, "EPHEMERIS_TYPE": 0, "CLASSIFICATION_TYPE": "U", "NORAD_CAT_ID": 65942, "ELEMENT_SET_NO": 999, "REV_AT_EPOCH": 977, "BSTAR": 0.0014131762, "MEAN_MOTION_DOT": 0.00130896, "MEAN_MOTION_DDOT": 0}, "tle": {"line1": "1 65942U 98067XP  25346.14280537  .00130896  00000+0  14132-2 0  9995", "line2": "2 65942  51.6278 142.3097 0003211 233.7514 126.3183 15.62701818  9771"}}, "geometry": {"type": "Point", "coordinates": [44.438663194123166, -51.499272299099864]}}, {"type": "Feature", "properties": {"norad_id": 65943, "name": "E-KAGAKU-1", "group": "stations", "lat": -43.25110064295085, "lon": 91.96775044653378, "alt_km": 393.944881781752, "timestamp": "2025-12-12T16:50:31.930738+00:00", "meta": {"OBJECT_NAME": "E-KAGAKU-1", "OBJECT_ID": "1998-067XQ", "EPOCH": "2025-12-10T06:39:08.237952", "MEAN_MOTION": 15.5900432, "ECCENTRICITY": 0.00052507, "INCLINATION": 51.6298, "RA_OF_ASC_NODE": 152.3458, "ARG_OF_PERICENTER": 191.2269, "MEAN_ANOMALY": 168.8608, "EPHEMERIS_TYPE": 0, "CLASSIFICATION_TYPE": "U", "NORAD_CAT_ID": 65943, "ELEMENT_SET_NO": 999, "REV_AT_EPOCH": 947, "BSTAR": 0.0012588803, "MEAN_MOTION_DOT": 0.00100705, "MEAN_MOTION_DDOT": 0}, "tle": {"line1": "1 65943U 98067XQ  25344.27717868  .00100705  00000+0  12589-2 0  9990", "line2": "2 65943  51.6298 152.3458 0005250 191.2269 168.8608 15.59004320  9476"}}, "geometry": {"type": "Point", "coordinates": [91.96775044653378, -43.25110064295085]}}]}